NORAD_CAT_ID,OBJECT_NAME,OBJECT_TYPE,EPOCH,MEAN_MOTION,ECCENTRICITY,INCLINATION,RA_OF_ASC_NODE,ARG_OF_PERICENTER,MEAN_ANOMALY,BSTAR,MEAN_MOTION_DOT,MEAN_MOTION_DDOT,TLE_LINE0,TLE_LINE1,TLE_LINE2,SEMIMAJOR_AXIS,PERIOD,APOGEE,PERIGEE,DECAYED
52296.0,STARLINK-3766,PAYLOAD,2022-09-26 17:11:27,15.08829283,0.0001610999999999,53.2213,355.3602,49.7558,310.3575,-6.0965e-05,-1.258e-05,0.0,0 STARLINK-3766,1 52296U 22041AM  22269.71629053 -.00001258  00000-0 -60965-4 0  9995,2 52296  53.2213 355.3602 0001611  49.7558 310.3575 15.08829283 24290,6917.913000000001,95.438,540.893,538.664,0.0
52296.0,STARLINK-3766,PAYLOAD,2022-09-27 12:16:04,15.08837978,0.0001615,53.2214,351.7914,59.0643,301.0508,0.00010165,1.33e-05,0.0,0 STARLINK-3766,1 52296U 22041AM  22270.51116264  .00001330  00000-0  10165-3 0  9995,2 52296  53.2214 351.7914 0001615  59.0643 301.0508 15.08837978 25632,6917.887,95.438,540.869,538.634,0.0
52296.0,STARLINK-3766,PAYLOAD,2022-09-27 15:26:50,15.08845407,0.0001538,53.2212,351.1958,55.3269,304.7868,0.00013974,1.937e-05,0.0,0 STARLINK-3766,1 52296U 22041AM  22270.64363744  .00001937  00000-0  13974-3 0  9990,2 52296  53.2212 351.1958 0001538  55.3269 304.7868 15.08845407 25656,6917.864000000001,95.437,540.793,538.665,0.0
52296.0,STARLINK-3766,PAYLOAD,2022-09-28 12:06:51,15.08845321,0.0001678,53.2205,347.3311,57.0138,303.1016,0.00029422,4.398e-05,0.0,0 STARLINK-3766,1 52296U 22041AM  22271.50476175  .00004398  00000-0  29422-3 0  9998,2 52296  53.2205 347.3311 0001678  57.0138 303.1016 15.08845321 25784,6917.864000000001,95.437,540.89,538.568,0.0
52296.0,STARLINK-3766,PAYLOAD,2022-09-28 15:17:37,15.08844468,0.0001646,53.2213,346.7376,56.8401,303.2749,0.00010395,1.367e-05,0.0,0 STARLINK-3766,1 52296U 22041AM  22271.63724107  .00001367  00000-0  10395-3 0  9995,2 52296  53.2213 346.7376 0001646  56.8401 303.2749 15.08844468 24584,6917.8669999999975,95.437,540.87,538.5930000000002,0.0
52296.0,STARLINK-3766,PAYLOAD,2022-09-29 11:57:38,15.08835038,0.0001675,53.2206,342.8712,58.8106,301.305,-0.00010053,-1.887e-05,0.0,0 STARLINK-3766,1 52296U 22041AM  22272.49836577 -.00001887  00000-0 -10053-3 0  9995,2 52296  53.2206 342.8712 0001675  58.8106 301.3050 15.08835038 25930,6917.896,95.438,540.919,538.602,0.0
52296.0,STARLINK-3766,PAYLOAD,2022-09-29 15:08:25,15.08840463,0.0001597,53.2213,342.276,58.4612,301.6536,2.071e-05,4.2e-07,0.0,0 STARLINK-3766,1 52296U 22041AM  22272.63084814  .00000042  00000-0  20710-4 0  9992,2 52296  53.2213 342.2760 0001597  58.4612 301.6536 15.08840463 24733,6917.879,95.438,540.849,538.639,0.0
52296.0,STARLINK-3766,PAYLOAD,2022-09-30 03:51:29,15.08852043,0.0001575,53.221,339.8966,56.8381,303.2762,7.9736e-05,9.82e-06,0.0,0 STARLINK-3766,1 52296U 22041AM  22273.16075858  .00000982  00000-0  79736-4 0  9994,2 52296  53.2210 339.8966 0001575  56.8381 303.2762 15.08852043 26032,6917.844,95.437,540.798,538.619,0.0
52296.0,STARLINK-3766,PAYLOAD,2022-09-30 11:48:25,15.08843464,0.0001675999999999,53.2201,338.412,52.7472,307.3672,8.7345e-05,1.102e-05,0.0,0 STARLINK-3766,1 52296U 22041AM  22273.49196129  .00001102  00000-0  87345-4 0  9995,2 52296  53.2201 338.4120 0001676  52.7472 307.3672 15.08843464 24868,6917.87,95.437,540.894,538.575,0.0
52296.0,STARLINK-3766,PAYLOAD,2022-09-30 16:34:34,15.08847232,0.0001673,53.221,337.5188,57.6369,302.4785,0.00013561,1.871e-05,0.0,0 STARLINK-3766,1 52296U 22041AM  22273.69067847  .00001871  00000-0  13561-3 0  9992,2 52296  53.2210 337.5188 0001673  57.6369 302.4785 15.08847232 24899,6917.858,95.437,540.881,538.566,0.0
52296.0,STARLINK-3766,PAYLOAD,2022-09-30 21:20:43,15.08849851,0.0001666999999999,53.221,336.6268,57.1489,302.9664,0.00022036,3.222e-05,0.0,0 STARLINK-3766,1 52296U 22041AM  22273.88939514  .00003222  00000-0  22036-3 0  9991,2 52296  53.2210 336.6268 0001667  57.1489 302.9664 15.08849851 26149,6917.85,95.437,540.868,538.562,0.0
52296.0,STARLINK-3766,PAYLOAD,2022-10-01 13:14:35,15.08850805,0.0001718,53.2199,333.653,54.8902,305.2251,0.0002274,3.334e-05,0.0,0 STARLINK-3766,1 52296U 22041AM  22274.55179475  .00003334  00000-0  22740-3 0  9994,2 52296  53.2199 333.6530 0001718  54.8902 305.2251 15.08850805 25020,6917.847,95.437,540.901,538.524,0.0
52296.0,STARLINK-3766,PAYLOAD,2022-10-02 11:29:59,15.08837755,0.0001706999999999,53.2201,329.4904,54.9736,305.1416,-0.00012325,-2.249e-05,0.0,0 STARLINK-3766,1 52296U 22041AM  22275.47915823 -.00002249  00000-0 -12325-3 0  9995,2 52296  53.2201 329.4904 0001707  54.9736 305.1416 15.08837755 26387,6917.887,95.438,540.933,538.571,0.0
52296.0,STARLINK-3766,PAYLOAD,2022-10-02 16:16:08,15.08850123,0.0001673,53.2207,328.598,49.32,310.7937,-0.00015082,-2.688e-05,0.0,0 STARLINK-3766,1 52296U 22041AM  22275.67787764 -.00002688  00000-0 -15082-3 0  9998,2 52296  53.2207 328.5980 0001673  49.3200 310.7937 15.08850123 25195,6917.849,95.437,540.872,538.557,0.0
52296.0,STARLINK-3766,PAYLOAD,2022-10-03 09:45:21,15.08857386,0.0001665999999999,53.2206,325.3272,55.3244,304.7905,0.00014685,2.051e-05,0.0,0 STARLINK-3766,1 52296U 22041AM  22276.40650441  .00002051  00000-0  14685-3 0  9991,2 52296  53.2206 325.3272 0001666  55.3244 304.7905 15.08857386 26524,6917.8269999999975,95.436,540.845,538.54,0.0
52296.0,STARLINK-3766,PAYLOAD,2022-10-03 11:20:45,15.08852462,0.0001723,53.2205,325.0303,53.4588,306.6563,0.0001092,1.451e-05,0.0,0 STARLINK-3766,1 52296U 22041AM  22276.47274785  .00001451  00000-0  10920-3 0  9992,2 52296  53.2205 325.0303 0001723  53.4588 306.6563 15.08852462 25316,6917.842,95.437,540.899,538.515,0.0
52296.0,STARLINK-3766,PAYLOAD,2022-10-03 14:31:31,15.08851041,0.0001688,53.2206,324.4351,54.3018,305.8131,9.1811e-05,1.174e-05,0.0,0 STARLINK-3766,1 52296U 22041AM  22276.60522878  .00001174  00000-0  91811-4 0  9997,2 52296  53.2206 324.4351 0001688  54.3018 305.8131 15.08851041 25337,6917.847,95.437,540.879,538.544,0.0
52296.0,STARLINK-3766,PAYLOAD,2022-10-03 20:53:03,15.08859272,0.0001698,53.2205,323.2459,54.5056,305.6095,0.00017459,2.493e-05,0.0,0 STARLINK-3766,1 52296U 22041AM  22276.87018095  .00002493  00000-0  17459-3 0  9997,2 52296  53.2205 323.2459 0001698  54.5056 305.6095 15.08859272 26597,6917.821,95.436,540.861,538.512,0.0
52296.0,STARLINK-3766,PAYLOAD,2022-10-04 09:36:09,15.08838297,0.0001739,53.2198,320.8673,55.7909,304.3248,9.7539e-05,1.265e-05,0.0,0 STARLINK-3766,1 52296U 22041AM  22277.40011487  .00001265  00000-0  97539-4 0  9999,2 52296  53.2198 320.8673 0001739  55.7909 304.3248 15.08838297 26674,6917.886,95.438,540.9540000000002,538.548,0.0
52296.0,STARLINK-3766,PAYLOAD,2022-10-05 11:02:20,15.08839434,0.0001727,53.2206,316.1102,51.2456,308.869,-0.00010676,-1.987e-05,0.0,0 STARLINK-3766,1 52296U 22041AM  22278.45995843 -.00001987  00000-0 -10676-3 0  9991,2 52296  53.2206 316.1102 0001727  51.2456 308.8690 15.08839434 25611,6917.882,95.438,540.942,538.552,0.0
52296.0,STARLINK-3766,PAYLOAD,2022-10-06 02:56:11,15.08860062,0.0001639,53.2202,313.1353,43.7284,316.3838,-0.00036202,-6.048e-05,0.0,0 STARLINK-3766,1 52296U 22041AM  22279.12234959 -.00006048  00000-0 -36202-3 0  9996,2 52296  53.2202 313.1353 0001639  43.7284 316.3838 15.08860062 26934,6917.819,95.436,540.818,538.55,0.0
52296.0,STARLINK-3766,PAYLOAD,2022-10-06 10:53:07,15.08835365,0.000169,53.2206,311.6492,46.5398,313.5735,9.1129e-05,1.162e-05,0.0,0 STARLINK-3766,1 52296U 22041AM  22279.45355664  .00001162  00000-0  91129-4 0  9999,2 52296  53.2206 311.6492 0001690  46.5398 313.5735 15.08835365 25762,6917.895,95.438,540.929,538.59,0.0
52296.0,STARLINK-3766,PAYLOAD,2022-10-06 18:50:03,15.08837123,0.0001715,53.2206,310.1627,47.9278,312.186,6.887399999999999e-05,8.08e-06,0.0,0 STARLINK-3766,1 52296U 22041AM  22279.78475735  .00000808  00000-0  68874-4 0  9994,2 52296  53.2206 310.1627 0001715  47.9278 312.1860 15.08837123 25810,6917.889,95.438,540.941,538.568,0.0
52296.0,STARLINK-3766,PAYLOAD,2022-10-07 07:33:08,15.08830095,0.0001696,53.2201,307.7833,44.8498,315.2631,6.4235e-05,7.34e-06,0.0,0 STARLINK-3766,1 52296U 22041AM  22280.31468377  .00000734  00000-0  64235-4 0  9994,2 52296  53.2201 307.7833 0001696  44.8498 315.2631 15.08830095 25893,6917.911,95.438,540.9490000000002,538.602,0.0
52296.0,STARLINK-3766,PAYLOAD,2022-10-07 18:40:49,15.08841845,0.0001675999999999,53.2199,305.7022,46.632,313.4812,0.0001238,1.683e-05,0.0,0 STARLINK-3766,1 52296U 22041AM  22280.77835592  .00001683  00000-0  12380-3 0  9998,2 52296  53.2199 305.7022 0001676  46.6320 313.4812 15.08841845 25963,6917.875,95.437,540.899,538.58,0.0
52296.0,STARLINK-3766,PAYLOAD,2022-10-08 02:37:46,15.08834517,0.0001686999999999,53.2214,304.2163,53.8795,306.2354,5.2848e-05,5.53e-06,0.0,0 STARLINK-3766,1 52296U 22041AM  22281.10956365  .00000553  00000-0  52848-4 0  9997,2 52296  53.2214 304.2163 0001687  53.8795 306.2354 15.08834517 27230,6917.897,95.438,540.929,538.595,0.0
52296.0,STARLINK-3766,PAYLOAD,2022-10-08 08:59:18,15.08847191,0.0001709,53.2203,303.0271,47.7292,312.3845,-0.00025009,-4.267e-05,0.0,0 STARLINK-3766,1 52296U 22041AM  22281.37452487 -.00004267  00000-0 -25009-3 0  9998,2 52296  53.2203 303.0271 0001709  47.7292 312.3845 15.08847191 26058,6917.858,95.437,540.906,538.5409999999998,0.0
52296.0,STARLINK-3766,PAYLOAD,2022-10-08 18:31:37,15.08835726,0.0001771999999999,53.2211,301.2428,48.7805,311.334,1.477e-05,-5.3e-07,0.0,0 STARLINK-3766,1 52296U 22041AM  22281.77196680 -.00000053  00000-0  14770-4 0  9994,2 52296  53.2211 301.2428 0001772  48.7805 311.3340 15.08835726 26119,6917.893,95.438,540.984,538.533,0.0
52296.0,STARLINK-3766,PAYLOAD,2022-10-09 05:39:20,15.08831144,0.0001646,53.2211,299.1615,48.2666,311.8467,7.2759e-06,-1.72e-06,0.0,0 STARLINK-3766,1 52296U 22041AM  22282.23565116 -.00000172  00000-0  72759-5 0  9994,2 52296  53.2211 299.1615 0001646  48.2666 311.8467 15.08831144 27400,6917.906999999997,95.438,540.911,538.634,0.0
